NORAD_CAT_ID,OBJECT_NAME,OBJECT_TYPE,EPOCH,MEAN_MOTION,ECCENTRICITY,INCLINATION,RA_OF_ASC_NODE,ARG_OF_PERICENTER,MEAN_ANOMALY,BSTAR,MEAN_MOTION_DOT,MEAN_MOTION_DDOT,TLE_LINE0,TLE_LINE1,TLE_LINE2,SEMIMAJOR_AXIS,PERIOD,APOGEE,PERIGEE,DECAYED
52612.0,STARLINK-4002,PAYLOAD,2023-01-13 12:30:24,15.08848634,0.0001588,53.2133,46.9262,64.1397,295.9758,0.00019147,2.761e-05,0.0,0 STARLINK-4002,1 52612U 22052Q   23013.52111691  .00002761  00000-0  19147-3 0  9993,2 52612  53.2133  46.9262 0001588  64.1397 295.9758 15.08848634 37075,6917.854,95.437,540.818,538.62,0.0
52612.0,STARLINK-4002,PAYLOAD,2023-01-13 18:51:57,15.08842701,0.0001486999999999,53.2131,45.7398,78.6653,281.4506,6.6773e-05,7.75e-06,0.0,0 STARLINK-4002,1 52612U 22052Q   23013.78607966  .00000775  00000-0  66773-4 0  9997,2 52612  53.2131  45.7398 0001487  78.6653 281.4506 15.08842701 37118,6917.871999999999,95.437,540.766,538.7080000000001,0.0
52612.0,STARLINK-4002,PAYLOAD,2023-01-14 10:45:48,15.08851432,0.0001724,53.2141,42.7648,88.4039,271.7151,0.0003768999999999,5.717e-05,0.0,0 STARLINK-4002,1 52612U 22052Q   23014.44847780  .00005717  00000-0  37690-3 0  9997,2 52612  53.2141  42.7648 0001724  88.4039 271.7151 15.08851432 37585,6917.845,95.437,540.903,538.518,0.0
52612.0,STARLINK-4002,PAYLOAD,2023-01-14 18:42:44,15.08835555,0.0001269,53.214,41.2788,105.2042,254.9091,0.00011229,1.499e-05,0.0,0 STARLINK-4002,1 52612U 22052Q   23014.77968103  .00001499  00000-0  11229-3 0  9999,2 52612  53.2140  41.2788 0001269 105.2042 254.9091 15.08835555 37639,6917.894,95.438,540.637,538.881,0.0
52612.0,STARLINK-4002,PAYLOAD,2023-01-15 10:36:35,15.08857051,0.0001561,53.2132,38.3042,100.3189,259.798,0.00091431,0.000143,0.0,0 STARLINK-4002,1 52612U 22052Q   23015.44208226  .00014300  00000-0  91431-3 0  9995,2 52612  53.2132  38.3042 0001561 100.3189 259.7980 15.08857051 37739,6917.828,95.436,540.773,538.613,0.0
52612.0,STARLINK-4002,PAYLOAD,2023-01-15 18:33:31,15.08851188,0.0001588999999999,53.2136,36.8168,96.3212,263.7961,0.00087503,0.0001367,0.0,0 STARLINK-4002,1 52612U 22052Q   23015.77328375  .00013670  00000-0  87503-3 0  9993,2 52612  53.2136  36.8168 0001589  96.3212 263.7961 15.08851188 37780,6917.846,95.437,540.81,538.612,0.0
52612.0,STARLINK-4002,PAYLOAD,2023-01-16 10:27:22,15.08879059,0.000151,53.2137,33.8428,105.9378,254.178,0.0012884,0.00020298,0.0,0 STARLINK-4002,1 52612U 22052Q   23016.43567225  .00020298  00000-0  12884-2 0  9999,2 52612  53.2137  33.8428 0001510 105.9378 254.1780 15.08879059 37512,6917.761,95.435,540.6709999999999,538.581,0.0
52612.0,STARLINK-4002,PAYLOAD,2023-01-16 18:24:18,15.08837454,0.0001545,53.2139,32.3567,80.3149,279.8018,-0.00015317,-2.725e-05,0.0,0 STARLINK-4002,1 52612U 22052Q   23016.76688065 -.00002725  00000-0 -15317-3 0  9993,2 52612  53.2139  32.3567 0001545  80.3149 279.8018 15.08837454 37939,6917.888000000001,95.438,540.822,538.684,0.0
52612.0,STARLINK-4002,PAYLOAD,2023-01-17 10:18:11,15.08816598,0.0001643,53.2136,29.3836,77.893,282.2246,8.8046e-05,1.113e-05,0.0,0 STARLINK-4002,1 52612U 22052Q   23017.42929489  .00001113  00000-0  88046-4 0  9993,2 52612  53.2136  29.3836 0001643  77.8930 282.2246 15.08816598 38038,6917.951999999999,95.439,540.9540000000001,538.68,0.0
52612.0,STARLINK-4002,PAYLOAD,2023-01-17 18:15:07,15.08834167,0.0001579,53.2139,27.8956,81.8353,278.2818,0.0013155999999999,0.00020708,0.0,0 STARLINK-4002,1 52612U 22052Q   23017.76049829  .00020708  00000-0  13156-2 0  9990,2 52612  53.2139  27.8956 0001579  81.8353 278.2818 15.08834167 38086,6917.898,95.438,540.856,538.6709999999999,0.0
52612.0,STARLINK-4002,PAYLOAD,2023-01-18 10:08:57,15.08881045,0.0001537,53.2139,24.9219,77.5422,282.5742,0.0023125999999999,0.00036751,0.0,0 STARLINK-4002,1 52612U 22052Q   23018.42289086  .00036751  00000-0  23126-2 0  9998,2 52612  53.2139  24.9219 0001537  77.5422 282.5742 15.08881045 38181,6917.755,95.435,540.683,538.557,0.0
52612.0,STARLINK-4002,PAYLOAD,2023-01-18 22:52:02,15.088598800000002,0.0001057,53.215,22.5438,74.9527,285.1582,0.0010482999999999,0.00016444,0.0,0 STARLINK-4002,1 52612U 22052Q   23018.95280922  .00016444  00000-0  10483-2 0  9995,2 52612  53.2150  22.5438 0001057  74.9527 285.1582 15.08859880 38267,6917.82,95.436,540.4159999999999,538.953,0.0
52612.0,STARLINK-4002,PAYLOAD,2023-01-19 06:48:58,15.0886553,9.2e-05,53.2144,21.0558,77.2163,282.8932,0.0016813,0.0002658999999999,0.0,0 STARLINK-4002,1 52612U 22052Q   23019.28400629  .00026590  00000-0  16813-2 0  9996,2 52612  53.2144  21.0558 0000920  77.2163 282.8932 15.08865530 37943,6917.802,95.436,540.304,539.031,0.0
52612.0,STARLINK-4002,PAYLOAD,2023-01-19 22:42:49,15.08868463,0.0001437,53.2136,18.0831,83.8515,276.2641,0.0017779,0.00028143,0.0,0 STARLINK-4002,1 52612U 22052Q   23019.94640468  .00028143  00000-0  17779-2 0  9994,2 52612  53.2136  18.0831 0001437  83.8515 276.2641 15.08868463 38417,6917.793000000001,95.436,540.6519999999999,538.664,0.0
52612.0,STARLINK-4002,PAYLOAD,2023-01-20 06:39:44,15.08861732,0.0001357,53.2137,16.5949,95.6614,264.4533,0.00094286,0.00014758,0.0,0 STARLINK-4002,1 52612U 22052Q   23020.27760004  .00014758  00000-0  94286-3 0  9997,2 52612  53.2137  16.5949 0001357  95.6614 264.4533 15.08861732 38469,6917.814,95.436,540.618,538.74,0.0
52612.0,STARLINK-4002,PAYLOAD,2023-01-20 16:12:03,15.08856927,0.0001349,53.2144,14.8109,95.718,264.3966,0.00051513,7.924e-05,0.0,0 STARLINK-4002,1 52612U 22052Q   23020.67503854  .00007924  00000-0  51513-3 0  9992,2 52612  53.2144  14.8109 0001349  95.7180 264.3966 15.08856927 38522,6917.829000000001,95.436,540.627,538.76,0.0
52612.0,STARLINK-4002,PAYLOAD,2023-01-21 03:19:46,15.08827956,0.0001392,53.2143,12.7293,87.9811,272.1341,0.0002323999999999,3.411e-05,0.0,0 STARLINK-4002,1 52612U 22052Q   23021.13872783  .00003411  00000-0  23240-3 0  9997,2 52612  53.2143  12.7293 0001392  87.9811 272.1341 15.08827956 38595,6917.917,95.438,540.745,538.819,0.0
52612.0,STARLINK-4002,PAYLOAD,2023-01-21 16:02:51,15.08842356,0.0001315,53.2147,10.3506,79.4194,280.6946,0.0015939,0.00025172,0.0,0 STARLINK-4002,1 52612U 22052Q   23021.66865217  .00025172  00000-0  15939-2 0  9992,2 52612  53.2147  10.3506 0001315  79.4194 280.6946 15.08842356 38670,6917.8730000000005,95.437,540.648,538.828,0.0
52612.0,STARLINK-4002,PAYLOAD,2023-01-22 09:32:05,15.08856166,0.0001662,53.2138,7.0781,82.3069,277.8112,0.0010665,0.00016734,0.0,0 STARLINK-4002,1 52612U 22052Q   23022.39729091  .00016734  00000-0  10665-2 0  9997,2 52612  53.2138   7.0781 0001662  82.3069 277.8112 15.08856166 38786,6917.831,95.437,540.846,538.5459999999999,0.0
52612.0,STARLINK-4002,PAYLOAD,2023-01-22 22:15:11,15.0883345,0.0001468,53.2139,4.6959,97.9597,262.1562,0.00013167,1.808e-05,0.0,0 STARLINK-4002,1 52612U 22052Q   23022.92721728  .00001808  00000-0  13167-3 0  9992,2 52612  53.2139   4.6959 0001468  97.9597 262.1562 15.08833450 38865,6917.9,95.438,540.781,538.75,0.0
52612.0,STARLINK-4002,PAYLOAD,2023-01-24 04:27:31,15.08847711,0.0001399,53.2143,359.0473,97.3983,262.7168,0.00078005,0.00012151,0.0,0 STARLINK-4002,1 52612U 22052Q   23024.18577910  .00012151  00000-0  78005-3 0  9999,2 52612  53.2143 359.0473 0001399  97.3983 262.7168 15.08847711 39059,6917.857,95.437,540.69,538.754,0.0
52612.0,STARLINK-4002,PAYLOAD,2023-01-24 15:35:13,15.0883783,0.0001545,53.2162,356.9678,88.8705,271.2464,0.00021838,3.189e-05,0.0,0 STARLINK-4002,1 52612U 22052Q   23024.64946159  .00003189  00000-0  21838-3 0  9998,2 52612  53.2162 356.9678 0001545  88.8705 271.2464 15.08837830 39126,6917.887,95.438,540.821,538.683,0.0
52612.0,STARLINK-4002,PAYLOAD,2023-01-25 07:29:04,15.08850406,0.0001452,53.2153,353.9923,97.3703,262.7454,0.00050804,7.809e-05,0.0,0 STARLINK-4002,1 52612U 22052Q   23025.31185871  .00007809  00000-0  50804-3 0  9997,2 52612  53.2153 353.9923 0001452  97.3703 262.7454 15.08850406 38853,6917.849,95.437,540.7180000000001,538.7090000000001,0.0
52612.0,STARLINK-4002,PAYLOAD,2023-01-25 15:26:00,15.08843692,0.0001193999999999,53.2153,352.5066,80.7777,279.335,0.00051505,7.919e-05,0.0,0 STARLINK-4002,1 52612U 22052Q   23025.64306133  .00007919  00000-0  51505-3 0  9990,2 52612  53.2153 352.5066 0001194  80.7777 279.3350 15.08843692 38900,6917.869000000001,95.437,540.56,538.908,0.0
52612.0,STARLINK-4002,PAYLOAD,2023-01-26 04:09:05,15.08848177,0.0001537,53.2145,350.1282,82.309,277.8077,0.00045709,6.996e-05,0.0,0 STARLINK-4002,1 52612U 22052Q   23026.17298260  .00006996  00000-0  45709-3 0  9993,2 52612  53.2145 350.1282 0001537  82.3090 277.8077 15.08848177 39354,6917.855,95.437,540.784,538.6569999999999,0.0
52612.0,STARLINK-4002,PAYLOAD,2023-01-26 07:19:51,15.0884955,0.0001422,53.2155,349.533,82.6554,277.46,0.00059226,9.153e-05,0.0,0 STARLINK-4002,1 52612U 22052Q   23026.30546216  .00009153  00000-0  59226-3 0  9992,2 52612  53.2155 349.5330 0001422  82.6554 277.4600 15.08849550 39008,6917.851,95.437,540.7,538.732,0.0
52612.0,STARLINK-4002,PAYLOAD,2023-01-26 20:02:57,15.08843155,0.0001434,53.2153,347.1524,79.566,280.5494,0.00028006,4.172e-05,0.0,0 STARLINK-4002,1 52612U 22052Q   23026.83538356  .00004172  00000-0  28006-3 0  9994,2 52612  53.2153 347.1524 0001434  79.5660 280.5494 15.08843155 39451,6917.871,95.437,540.7280000000001,538.744,0.0
52612.0,STARLINK-4002,PAYLOAD,2023-01-27 07:10:38,15.08852049,0.0001345,53.2161,345.0714,79.1317,280.9827,0.00029698,4.443e-05,0.0,0 STARLINK-4002,1 52612U 22052Q   23027.29905846  .00004443  00000-0  29698-3 0  9996,2 52612  53.2161 345.0714 0001345  79.1317 280.9827 15.08852049 39157,6917.844,95.437,540.639,538.778,0.0
52612.0,STARLINK-4002,PAYLOAD,2023-01-28 03:50:39,15.08839119,0.0001017,53.2148,341.2095,87.5447,272.5662,8.7494e-05,1.105e-05,0.0,0 STARLINK-4002,1 52612U 22052Q   23028.16018437  .00001105  00000-0  87494-4 0  9995,2 52612  53.2148 341.2095 0001017  87.5447 272.5662 15.08839119 39657,6917.883000000001,95.438,540.452,539.045,0.0
